[
    {
        "Altitude(m)": 617710.6616498309,
        "Argument of Periapsis(deg)": 0.0,
        "Eccentricity": 0.0,
        "Inclination(deg)": 60.0,
        "Latitude(deg)": -41.1027196703764,
        "Longitude(deg)": 179.96656936923097,
        "Mean Anomaly(deg)": -49.09089999999999,
        "RAAN(deg)": 310.0,
        "Satellite Name": "Test1 1383",
        "Satellite Number": 1383,
        "Semi-Major Axis(m)": 6980739.136638005,
        "Time(s)": 0
    },
    {
        "Altitude(m)": 617517.9603133627,
        "Argument of Periapsis(deg)": 0.00010418945913296404,
        "Eccentricity": 0.0,
        "Inclination(deg)": 60.0,
        "Latitude(deg)": -40.636927235497716,
        "Longitude(deg)": -179.53663559326097,
        "Mean Anomaly(deg)": -48.470793854538144,
        "RAAN(deg)": 309.99957995086027,
        "Satellite Name": "Test1 1383",
        "Satellite Number": 1383,
        "Semi-Major Axis(m)": 6980739.136638005,
        "Time(s)": 10
    }
]